{"type": "FeatureCollection", "features": [ {"type": "Feature", "properties": {"norad_id": 66635, "name": "STARLINK-35955", "group": "last-30-days", "lat": 4.234421277596491, "lon": -51.286609379802115, "alt_km": 447.37540880105644, "timestamp": "2025-12-24T09:46:29.713969+00:00", "meta": {"OBJECT_NAME": "STARLINK-35955", "OBJECT_ID": "2025-271U", "EPOCH": "2025-12-24T02:47:17.685888", "MEAN_MOTION": 15.39650524, "ECCENTRICITY": 0.0001227, "INCLINATION": 53.1628, "RA_OF_ASC_NODE": 133.2672, "ARG_OF_PERICENTER": 85.9627, "MEAN_ANOMALY": 274.1518, "EPHEMERIS_TYPE": 0, "CLASSIFICATION_TYPE": "U", "NORAD_CAT_ID": 66635, "ELEMENT_SET_NO": 999, "REV_AT_EPOCH": 596, "BSTAR": 0.00097981, "MEAN_MOTION_DOT": 0.00039032, "MEAN_MOTION_DDOT": 0}, "tle": {"line1": "1 66635U 25271U   25358.11617692  .00039032  00000+0  97981-3 0  9992", "line2": "2 66635  53.1628 133.2672 0001227  85.9627 274.1518 15.39650524  5964"}}, "geometry": {"type": "Point", "coordinates": [-51.286609379802115, 4.234421277596491]}}, {"type": "Feature", "properties": {"norad_id": 66636, "name": "STARLINK-35968", "group": "last-30-days", "lat": 24.328248422663027, "lon": -67.87237083355184, "alt_km": 444.0341622208598, "timestamp": "2025-12-24T09:46:29.713980+00:00", "meta": {"OBJECT_NAME": "STARLINK-35968", "OBJECT_ID": "2025-271V", "EPOCH": "2025-12-23T20:40:04.403712", "MEAN_MOTION": 15.39659771, "ECCENTRICITY": 0.00010839, "INCLINATION": 53.1598, "RA_OF_ASC_NODE": 134.5153, "ARG_OF_PERICENTER": 75.8209, "MEAN_ANOMALY": 284.2917, "EPHEMERIS_TYPE": 0, "CLASSIFICATION_TYPE": "U", "NORAD_CAT_ID": 66636, "ELEMENT_SET_NO": 999, "REV_AT_EPOCH": 592, "BSTAR": 0.00094849799, "MEAN_MOTION_DOT": 0.00037777, "MEAN_MOTION_DDOT": 0}, "tle": {"line1": "1 66636U 25271V   25357.86116208  .00037777  00000+0  94850-3 0  9997", "line2": "2 66636  53.1598 134.5153 0001083  75.8209 284.2917 15.39659771  5927"}}, "geometry": {"type": "Point", "coordinates": [-67.87237083355184, 24.328248422663027]}}, {"type": "Feature", "properties": {"norad_id": 66637, "name": "STARLINK-35953", "group": "last-30-days", "lat": -16.208201597617492, "lon": -35.57227900905799, "alt_km": 450.46313219831336, "timestamp": "2025-12-24T09:46:29.713992+00:00", "meta": {"OBJECT_NAME": "STARLINK-35953", "OBJECT_ID": "2025-271W", "EPOCH": "2025-12-24T02:40:36.942816", "MEAN_MOTION": 15.3962321, "ECCENTRICITY": 0.0002122, "INCLINATION": 53.1612, "RA_OF_ASC_NODE": 133.2348, "ARG_OF_PERICENTER": 85.8324, "MEAN_ANOMALY": 274.2924, "EPHEMERIS_TYPE": 0, "CLASSIFICATION_TYPE": "U", "NORAD_CAT_ID": 66637, "ELEMENT_SET_NO": 999, "REV_AT_EPOCH": 596, "BSTAR": 0.0011044, "MEAN_MOTION_DOT": 0.00044035, "MEAN_MOTION_DDOT": 0}, "tle": {"line1": "1 66637U 25271W   25358.11153869  .00044035  00000+0  11044-2 0  9999", "line2": "2 66637  53.1612 133.2348 0002122  85.8324 274.2924 15.39623210  5961"}}, "geometry": {"type": "Point", "coordinates": [-35.57227900905799, -16.208201597617492]}}, {"type": "Feature", "properties": {"norad_id": 66638, "name": "STARLINK-35972", "group": "last-30-days", "lat": -49.50004163646501, "lon": 13.108880328295667, "alt_km": 453.47958272361666, "timestamp": "2025-12-24T09:46:29.714002+00:00", "meta": {"OBJECT_NAME": "STARLINK-35972", "OBJECT_ID": "2025-271X", "EPOCH": "2025-12-24T02:27:14.478624", "MEAN_MOTION": 15.39644446, "ECCENTRICITY": 0.0002467, "INCLINATION": 53.162, "RA_OF_ASC_NODE": 133.1754, "ARG_OF_PERICENTER": 80.0074, "MEAN_ANOMALY": 280.1209, "EPHEMERIS_TYPE": 0, "CLASSIFICATION_TYPE": "U", "NORAD_CAT_ID": 66638, "ELEMENT_SET_NO": 999, "REV_AT_EPOCH": 596, "BSTAR": 0.00095988, "MEAN_MOTION_DOT": 0.0003822, "MEAN_MOTION_DDOT": 0}, "tle": {"line1": "1 66638U 25271X   25358.10225091  .00038220  00000+0  95988-3 0  9995", "line2": "2 66638  53.1620 133.1754 0002467  80.0074 280.1209 15.39644446  5968"}}, "geometry": {"type": "Point", "coordinates": [13.108880328295667, -49.50004163646501]}}, {"type": "Feature", "properties": {"norad_id": 66639, "name": "STARLINK-35908", "group": "last-30-days", "lat": -52.483362380056356, "lon": 54.16418989470301, "alt_km": 453.15969123158084, "timestamp": "2025-12-24T09:46:29.714012+00:00", "meta": {"OBJECT_NAME": "STARLINK-35908", "OBJECT_ID": "2025-271Y", "EPOCH": "2025-12-24T02:20:33.046944", "MEAN_MOTION": 15.39628481, "ECCENTRICITY": 0.000188, "INCLINATION": 53.1622, "RA_OF_ASC_NODE": 133.1471, "ARG_OF_PERICENTER": 82.1852, "MEAN_ANOMALY": 277.9366, "EPHEMERIS_TYPE": 0, "CLASSIFICATION_TYPE": "U", "NORAD_CAT_ID": 66639, "ELEMENT_SET_NO": 999, "REV_AT_EPOCH": 596, "BSTAR": 0.0013189, "MEAN_MOTION_DOT": 0.00052736, "MEAN_MOTION_DDOT": 0}, "tle": {"line1": "1 66639U 25271Y   25358.09760471  .00052736  00000+0  13189-2 0  9990", "line2": "2 66639  53.1622 133.1471 0001880  82.1852 277.9366 15.39628481  5961"}}, "geometry": {"type": "Point", "coordinates": [54.16418989470301, -52.483362380056356]}}, {"type": "Feature", "properties": {"norad_id": 66640, "name": "STARLINK-35921", "group": "last-30-days", "lat": -35.2467010007004, "lon": -16.219940540663586, "alt_km": 452.3493103697783, "timestamp": "2025-12-24T09:46:29.714022+00:00", "meta": {"OBJECT_NAME": "STARLINK-35921", "OBJECT_ID": "2025-271Z", "EPOCH": "2025-12-24T02:33:55.575072", "MEAN_MOTION": 15.39633842, "ECCENTRICITY": 0.0001841, "INCLINATION": 53.161, "RA_OF_ASC_NODE": 133.2065, "ARG_OF_PERICENTER": 70.5998, "MEAN_ANOMALY": 289.5206, "EPHEMERIS_TYPE": 0, "CLASSIFICATION_TYPE": "U", "NORAD_CAT_ID": 66640, "ELEMENT_SET_NO": 999, "REV_AT_EPOCH": 596, "BSTAR": 0.0016907, "MEAN_MOTION_DOT": 0.00067864, "MEAN_MOTION_DDOT": 0}, "tle": {"line1": "1 66640U 25271Z   25358.10689323  .00067864  00000+0  16907-2 0  9999", "line2": "2 66640  53.1610 133.2065 0001841  70.5998 289.5206 15.39633842  5968"}}, "geometry": {"type": "Point", "coordinates": [-16.219940540663586, -35.2467010007004]}}, {"type": "Feature", "properties": {"norad_id": 66641, "name": "STARLINK-35923", "group": "last-30-days", "lat": 22.729934025973957, "lon": 149.76986153631861, "alt_km": 426.7495738911339, "timestamp": "2025-12-24T09:46:29.714032+00:00", "meta": {"OBJECT_NAME": "STARLINK-35923", "OBJECT_ID": "2025-271AA", "EPOCH": "2025-12-24T01:53:27.760992", "MEAN_MOTION": 15.45595908, "ECCENTRICITY": 5.45e-05, "INCLINATION": 53.1609, "RA_OF_ASC_NODE": 133.0279, "ARG_OF_PERICENTER": 71.1975, "MEAN_ANOMALY": 288.9091, "EPHEMERIS_TYPE": 0, "CLASSIFICATION_TYPE": "U", "NORAD_CAT_ID": 66641, "ELEMENT_SET_NO": 999, "REV_AT_EPOCH": 596, "BSTAR": 0.0015184, "MEAN_MOTION_DOT": 0.00074519, "MEAN_MOTION_DDOT": 0}, "tle": {"line1": "1 66641U 25271AA  25358.07879353  .00074519  00000+0  15184-2 0  9991", "line2": "2 66641  53.1609 133.0279 0000545  71.1975 288.9091 15.45595908  5966"}}, "geometry": {"type": "Point", "coordinates": [149.76986153631861, 22.729934025973957]}}, {"type": "Feature", "properties": {"norad_id": 66642, "name": "STARLINK-35926", "group": "last-30-days", "lat": 15.553155347741379, "lon": 143.52829176119278, "alt_km": 440.07555305263486, "timestamp": "2025-12-24T09:46:29.714043+00:00", "meta": {"OBJECT_NAME": "STARLINK-35926", "OBJECT_ID": "2025-271AB", "EPOCH": "2025-12-24T04:00:01.998720", "MEAN_MOTION": 15.42856702, "ECCENTRICITY": 0.000217, "INCLINATION": 53.1602, "RA_OF_ASC_NODE": 132.6226, "ARG_OF_PERICENTER": 80.9303, "MEAN_ANOMALY": 42.2823, "EPHEMERIS_TYPE": 0, "CLASSIFICATION_TYPE": "U", "NORAD_CAT_ID": 66642, "ELEMENT_SET_NO": 999, "REV_AT_EPOCH": 584, "BSTAR": -0.068911, "MEAN_MOTION_DOT": -0.02689289, "MEAN_MOTION_DDOT": 0}, "tle": {"line1": "1 66642U 25271AB  25358.16668980 -.02689289  00000+0 -68911-1 0  9999", "line2": "2 66642  53.1602 132.6226 0002170  80.9303  42.2823 15.42856702  5846"}}, "geometry": {"type": "Point", "coordinates": [143.52829176119278, 15.553155347741379]}}, {"type": "Feature", "properties": {"norad_id": 66643, "name": "STARLINK-35918", "group": "last-30-days", "lat": -42.0103481280392, "lon": 89.16033305389627, "alt_km": 452.37220664889537, "timestamp": "2025-12-24T09:46:29.714053+00:00", "meta": {"OBJECT_NAME": "STARLINK-35918", "OBJECT_ID": "2025-271AC", "EPOCH": "2025-12-24T04:00:01.998720", "MEAN_MOTION": 15.39575833, "ECCENTRICITY": 0.0001158, "INCLINATION": 53.1603, "RA_OF_ASC_NODE": 132.7706, "ARG_OF_PERICENTER": 84.5516, "MEAN_ANOMALY": 324.4727, "EPHEMERIS_TYPE": 0, "CLASSIFICATION_TYPE": "U", "NORAD_CAT_ID": 66643, "ELEMENT_SET_NO": 999, "REV_AT_EPOCH": 607, "BSTAR": 0.0013544, "MEAN_MOTION_DOT": 0.00054083, "MEAN_MOTION_DDOT": 0}, "tle": {"line1": "1 66643U 25271AC  25358.16668980  .00054083  00000+0  13544-2 0  9997", "line2": "2 66643  53.1603 132.7706 0001158  84.5516 324.4727 15.39575833  6076"}}, "geometry": {"type": "Point", "coordinates": [89.16033305389627, -42.0103481280392]}}, {"type": "Feature", "properties": {"norad_id": 66644, "name": "STARLINK-35938", "group": "last-30-days", "lat": 14.100001751281548, "lon": 142.34317575281082, "alt_km": 440.47191326776283, "timestamp": "2025-12-24T09:46:29.714065+00:00", "meta": {"OBJECT_NAME": "STARLINK-35938", "OBJECT_ID": "2025-271AD", "EPOCH": "2025-12-24T04:00:01.998720", "MEAN_MOTION": 15.42875001, "ECCENTRICITY": 0.0001997, "INCLINATION": 53.1603, "RA_OF_ASC_NODE": 132.6271, "ARG_OF_PERICENTER": 86.8771, "MEAN_ANOMALY": 34.4691, "EPHEMERIS_TYPE": 0, "CLASSIFICATION_TYPE": "U", "NORAD_CAT_ID": 66644, "ELEMENT_SET_NO": 999, "REV_AT_EPOCH": 607, "BSTAR": -0.069087, "MEAN_MOTION_DOT": -0.02696593, "MEAN_MOTION_DDOT": 0}, "tle": {"line1": "1 66644U 25271AD  25358.16668980 -.02696593  00000+0 -69087-1 0  9992", "line2": "2 66644  53.1603 132.6271 0001997  86.8771  34.4691 15.42875001  6074"}}, "geometry": {"type": "Point", "coordinates": [142.34317575281082, 14.100001751281548]}}]}